FORMOSAT 7-1            
1 44349U 19036L   26197.18382955  .00001244  00000+0  80644-4 0  9995
2 44349  23.9964 196.8894 0000923 140.3019 219.7550 14.96613713389006
FORMOSAT 7-4            
1 44350U 19036M   26196.27300240  .00001322  00000+0  87277-4 0  9999
2 44350  23.9978 265.1424 0001188 142.3824 217.6760 14.96610033388283
FORMOSAT 7-2            
1 44351U 19036N   26196.56205992  .00001497  00000+0  10230-3 0  9997
2 44351  23.9989 317.5071 0000688 133.1454 226.9104 14.96610547387843
FORMOSAT 7-6            
1 44353U 19036Q   26197.16169520  .00001370  00000+0  91428-4 0  9991
2 44353  23.9967 134.2708 0001336  83.4980 276.5673 14.96614678386169
FORMOSAT 7-5            
1 44358U 19036V   26197.00580791  .00001438  00000+0  97276-4 0  9998
2 44358  23.9988  74.0755 0000364 135.7772 224.2758 14.96593763386671
METEOR-M2 2             
1 44387U 19038A   26197.18601309  .00000010  00000+0  24340-4 0  9997
2 44387  98.9154 184.9018 0000692   2.4118 357.7063 14.24372841365425
GLOBAL-4                
1 44499U 19054E   26196.91432981  .00038121  00000+0  34942-3 0  9999
2 44499  45.0056  70.3001 0005516 201.4444 158.6224 15.67138233384865
ZY-1 02D                
1 44528U 19059A   26197.20796278  .00000054  00000+0  34682-4 0  9998
2 44528  98.6715 258.7683 0003101 295.4499  64.6365 14.35268658358506
TAURUS-1 (JINNIUZUO 1)  
1 44530U 19059C   26197.19535223  .00000939  00000+0  15722-3 0  9995
2 44530  98.6433   3.8319 0008071 212.5634 147.5074 14.72370706362910
ZHUHAI-1 03B            
1 44536U 19060C   26197.14305410  .00018981  00000+0  27716-3 0  9993
2 44536  97.5557 356.5116 0008493 201.7924 158.2970 15.55668640380827
ZHUHAI-1 03D            
1 44538U 19060E   26197.19936975  .00020845  00000+0  35510-3 0  9999
2 44538  97.5402 348.4379 0007542 187.2866 172.8277 15.51382648380577
ZHUHAI-1 03E            
1 44539U 19060F   26197.19467808  .00010014  00000+0  23740-3 0  9993
2 44539  97.5648 348.1725 0004409 271.3930  88.6812 15.41942123380239
GAOFEN-7                
1 44703U 19072A   26197.27010116  .00001881  00000+0  87992-4 0  9996
2 44703  97.5706 258.0120 0017106 308.5242  51.4458 15.20925162372069
JILIN-1 GAOFEN 2A       
1 44777U 19075A   26197.18574497  .00007347  00000+0  18609-3 0  9998
2 44777  97.4964 281.6678 0005084 351.3431   8.7726 15.40028812369341
NINGXIA-1 1             
1 44779U 19076A   26197.11220814 -.00000075  00000+0  35673-4 0  9998
2 44779  45.0067  50.5905 0011519 293.6066  66.3558 14.02042097341918
NINGXIA-1 5             
1 44783U 19076E   26197.19575924 -.00000213  00000+0 -54054-4 0  9995
2 44783  45.0066  49.5492 0011395 284.8237  75.1334 14.02089364341845
KL-ALPHA A              
1 44785U 19077A   26197.19266469  .00000031  00000+0  26501-4 0  9991
2 44785  88.9228 219.3923 0012339  34.1796 326.0150 13.56045810329660
CARTOSAT-3              
1 44804U 19081A   26197.20308663  .00001485  00000+0  73689-4 0  9996
2 44804  97.4293 258.6006 0012945  55.7259 304.5199 15.19187779367874
JILIN-1 GAOFEN 2B       
1 44836U 19086A   26197.16237309  .00002921  00000+0  13461-3 0  9996
2 44836  97.4872 268.9756 0013317 212.1383 147.9042 15.21005057364895
TIANQIN 1 (CAS-6)       
1 44879U 19093A   26197.19445549  .00001737  00000+0  16173-3 0  9998
2 44879  97.7816 280.8262 0009936 324.6334  35.4226 14.95565613356384
ETRSS-1                 
1 44880U 19093B   26197.19272735  .00001920  00000+0  17621-3 0  9998
2 44880  97.7832 281.3094 0010039 324.6810  35.3745 14.96013795356394
TIANYAN 01              
1 44881U 19093C   26197.19064394 -.00000169  00000+0 -13049-4 0  9996
2 44881  97.7526 268.7141 0013509 358.3372   1.7797 14.86559970355728
TIANYAN 02              
1 44882U 19093D   26197.23306375  .00002502  00000+0  17805-3 0  9994
2 44882  97.7936 292.3088 0012268 284.6707  75.3159 15.05535395356986
CBERS 4A                
1 44883U 19093E   26197.20101547  .00000118  00000+0  21841-4 0  9993
2 44883  98.0184 264.6643 0001488 132.4294 227.7044 14.81443870355375
WEILAI 1R               
1 44884U 19093F   26197.19116278  .00002328  00000+0  18742-3 0  9999
2 44884  97.7895 287.1300 0015489 305.0806  54.8965 15.00871517356775
FLORIPASAT-1            
1 44885U 19093G   26197.23240823  .00001474  00000+0  11077-3 0  9994
2 44885  97.7927 291.6820 0010794 337.6261  22.4492 15.04144256357010
SHUNTIAN                
1 44886U 19093H   26197.18481785  .00001035  00000+0  99270-4 0  9998
2 44886  97.8012 285.1988 0010850 334.4581  25.6102 14.95279373356518
