OBJECT_NAME,OBJECT_ID,EPOCH,MEAN_MOTION,ECCENTRICITY,INCLINATION,RA_OF_ASC_NODE,ARG_OF_PERICENTER,MEAN_ANOMALY,EPHEMERIS_TYPE,CLASSIFICATION_TYPE,NORAD_CAT_ID,ELEMENT_SET_NO,REV_AT_EPOCH,BSTAR,MEAN_MOTION_DOT,MEAN_MOTION_DDOT
FORMOSAT 7-1,2019-036L,2026-07-16T04:24:42.873120,14.96613713,.0000923,23.9964,196.8894,140.3019,219.7550,0,U,44349,999,38900,.80644E-4,.1244E-4,0
FORMOSAT 7-4,2019-036M,2026-07-15T06:33:07.407360,14.96610033,.00011885,23.9978,265.1424,142.3824,217.6760,0,U,44350,999,38828,.87276854E-4,.1322E-4,0
FORMOSAT 7-2,2019-036N,2026-07-15T13:29:21.977088,14.96610547,.0000688,23.9989,317.5071,133.1454,226.9104,0,U,44351,999,38784,.1023E-3,.1497E-4,0
FORMOSAT 7-6,2019-036Q,2026-07-16T03:52:50.465280,14.96614678,.0001336,23.9967,134.2708,83.4980,276.5673,0,U,44353,999,38616,.91428E-4,.137E-4,0
FORMOSAT 7-5,2019-036V,2026-07-16T00:08:21.803424,14.96593763,.0000364,23.9988,74.0755,135.7772,224.2758,0,U,44358,999,38667,.97276E-4,.1438E-4,0
METEOR-M2 2,2019-038A,2026-07-16T04:27:51.530976,14.24372841,.0000692,98.9154,184.9018,2.4118,357.7063,0,U,44387,999,36542,.2434E-4,.1E-6,0
GLOBAL-4,2019-054E,2026-07-15T21:56:38.095584,15.67138233,.0005516,45.0056,70.3001,201.4444,158.6224,0,U,44499,999,38486,.34942E-3,.38121E-3,0
ZY-1 02D,2019-059A,2026-07-16T04:59:27.984192,14.35268658,.0003101,98.6715,258.7683,295.4499,64.6365,0,U,44528,999,35850,.34682E-4,.54E-6,0
TAURUS-1 (JINNIUZUO 1),2019-059C,2026-07-16T04:41:18.432672,14.72370706,.0008071,98.6433,3.8319,212.5634,147.5074,0,U,44530,999,36291,.15722E-3,.939E-5,0
ZHUHAI-1 03B,2019-060C,2026-07-16T03:25:59.874240,15.55668640,.0008493,97.5557,356.5116,201.7924,158.2970,0,U,44536,999,38082,.27716E-3,.18981E-3,0
ZHUHAI-1 03D,2019-060E,2026-07-16T04:47:05.546400,15.51382648,.0007542,97.5402,348.4379,187.2866,172.8277,0,U,44538,999,38057,.3551E-3,.20845E-3,0
ZHUHAI-1 03E,2019-060F,2026-07-16T04:40:20.186112,15.41942123,.0004409,97.5648,348.1725,271.3930,88.6812,0,U,44539,999,38023,.2374E-3,.10014E-3,0
GAOFEN-7,2019-072A,2026-07-16T06:28:56.740224,15.20925162,.0017106,97.5706,258.0120,308.5242,51.4458,0,U,44703,999,37206,.87992E-4,.1881E-4,0
JILIN-1 GAOFEN 2A,2019-075A,2026-07-16T04:27:28.365408,15.40028812,.0005084,97.4964,281.6678,351.3431,8.7726,0,U,44777,999,36934,.18609E-3,.7347E-4,0
NINGXIA-1 1,2019-076A,2026-07-16T02:41:34.783296,14.02042097,.0011519,45.0067,50.5905,293.6066,66.3558,0,U,44779,999,34191,.35673E-4,-.75E-6,0
NINGXIA-1 5,2019-076E,2026-07-16T04:41:53.598336,14.02089364,.0011395,45.0066,49.5492,284.8237,75.1334,0,U,44783,999,34184,-.54054E-4,-.213E-5,0
KL-ALPHA A,2019-077A,2026-07-16T04:37:26.229216,13.56045810,.0012339,88.9228,219.3923,34.1796,326.0150,0,U,44785,999,32966,.26501E-4,.31E-6,0
CARTOSAT-3,2019-081A,2026-07-16T04:52:26.684832,15.19187779,.0012945,97.4293,258.6006,55.7259,304.5199,0,U,44804,999,36787,.73689E-4,.1485E-4,0
JILIN-1 GAOFEN 2B,2019-086A,2026-07-16T03:53:49.034976,15.21005057,.0013317,97.4872,268.9756,212.1383,147.9042,0,U,44836,999,36489,.13461E-3,.2921E-4,0
TIANQIN 1 (CAS-6),2019-093A,2026-07-16T04:40:00.954336,14.95565613,.0009936,97.7816,280.8262,324.6334,35.4226,0,U,44879,999,35638,.16173E-3,.1737E-4,0
ETRSS-1,2019-093B,2026-07-16T04:37:31.643040,14.96013795,.0010039,97.7832,281.3094,324.6810,35.3745,0,U,44880,999,35639,.17621E-3,.192E-4,0
TIANYAN 01,2019-093C,2026-07-16T04:34:31.636416,14.86559970,.0013509,97.7526,268.7141,358.3372,1.7797,0,U,44881,999,35572,-.13049E-4,-.169E-5,0
TIANYAN 02,2019-093D,2026-07-16T05:35:36.708000,15.05535395,.0012268,97.7936,292.3088,284.6707,75.3159,0,U,44882,999,35698,.17805E-3,.2502E-4,0
CBERS 4A,2019-093E,2026-07-16T04:49:27.736608,14.81443870,.0001488,98.0184,264.6643,132.4294,227.7044,0,U,44883,999,35537,.21841E-4,.118E-5,0
WEILAI 1R,2019-093F,2026-07-16T04:35:16.464192,15.00871517,.0015489,97.7895,287.1300,305.0806,54.8965,0,U,44884,999,35677,.18742E-3,.2328E-4,0
FLORIPASAT-1,2019-093G,2026-07-16T05:34:40.071072,15.04144256,.0010794,97.7927,291.6820,337.6261,22.4492,0,U,44885,999,35701,.11077E-3,.1474E-4,0
SHUNTIAN,2019-093H,2026-07-16T04:26:08.262240,14.95279373,.001085,97.8012,285.1988,334.4581,25.6102,0,U,44886,999,35651,.9927E-4,.1035E-4,0
